OBJECT_NAME,OBJECT_ID,EPOCH,MEAN_MOTION,ECCENTRICITY,INCLINATION,RA_OF_ASC_NODE,ARG_OF_PERICENTER,MEAN_ANOMALY,EPHEMERIS_TYPE,CLASSIFICATION_TYPE,NORAD_CAT_ID,ELEMENT_SET_NO,REV_AT_EPOCH,BSTAR,MEAN_MOTION_DOT,MEAN_MOTION_DDOT
POLYITAN-1,2014-033AJ,2026-07-16T14:32:41.120736,15.34251009,.0007762,98.0930,226.6719,60.1864,300.0148,0,U,40042,999,65810,.32851E-3,.10814E-3,0
TIGRISAT,2014-033AK,2026-07-16T10:08:20.504256,14.85251528,.0048535,97.7866,346.7713,340.2740,19.6596,0,U,40043,999,64996,.85612E-4,.694E-5,0
AEROCUBE 6A,2014-033AM,2026-07-16T21:03:04.362048,14.98354523,.0036191,97.7254,4.5171,275.0947,84.6145,0,U,40045,999,65106,.27865E-3,.3303E-4,0
AEROCUBE 6B,2014-033AN,2026-07-16T22:00:54.581760,14.99807252,.0038109,97.7204,4.4075,264.0009,95.6870,0,U,40046,999,65121,.21043E-3,.258E-4,0
CANX-4,2014-034C,2026-07-17T03:27:04.820256,14.81313013,.0011373,98.3080,74.5514,275.8115,84.1800,0,U,40055,999,64896,.56174E-4,.381E-5,0
CANX-5,2014-034D,2026-07-17T03:24:19.209600,14.81330365,.0011375,98.3083,74.5947,276.0834,83.9082,0,U,40056,999,63977,.56082E-4,.381E-5,0
UKUBE-1,2014-037F,2026-07-16T23:30:53.043840,15.13965427,.0003222,98.4243,204.3928,84.6654,275.4942,0,U,40074,999,65306,.25063E-3,.4467E-4,0
BRITE-PL2 (HEWELIUSZ),2014-049B,2026-07-16T21:31:13.773216,14.94689258,.0014172,97.9120,310.1310,16.6624,343.5058,0,U,40119,999,64588,.50495E-4,.489E-5,0
AEROCUBE 5C,2015-058B,2026-07-16T22:35:04.989408,14.91582735,.013244,64.7647,170.0163,51.7932,309.5018,0,U,40965,999,37009,.16074E-3,.1731E-4,0
AEROCUBE 7,2015-058C,2026-07-16T14:01:28.536384,14.95921688,.0122135,64.7615,152.7227,50.2313,310.9482,0,U,40966,999,37035,.22231E-3,.2715E-4,0
FOX-1A (AO-85),2015-058D,2026-07-16T07:51:44.997696,14.91092003,.0132456,64.7725,188.4142,45.3781,315.8042,0,U,40967,999,11791,.15016E-3,.1582E-4,0
SINOD-D 1,2015-058E,2026-07-16T21:26:00.040128,14.96097928,.0121181,64.7738,165.8705,41.5238,319.5003,0,U,40968,999,12110,.22756E-3,.2792E-4,0
SNAP-3 ALICE,2015-058G,2026-07-16T20:16:43.328352,15.67559227,.0024945,64.7497,0.8241,347.1222,12.9287,0,U,40970,999,12152,.89502E-3,.100605E-2,0
LMRST-SAT,2015-058H,2026-07-16T08:34:46.717824,14.90707153,.0134,64.7732,184.7151,47.3672,313.8644,0,U,40971,999,11790,.14712E-3,.1536E-4,0
SNAP-3 EDDIE,2015-058J,2026-07-16T19:27:54.632736,15.68956444,.0026072,64.7408,351.4391,349.8624,10.1996,0,U,40972,999,12366,.88046E-3,.105052E-2,0
PROPCUBE 3,2015-058K,2026-07-16T20:33:15.655680,14.94424231,.0125901,64.7675,159.8251,48.3690,312.8125,0,U,40973,999,11923,.19914E-3,.2334E-4,0
BISONSAT,2015-058L,2026-07-16T21:42:52.240320,15.16959443,.008231,64.7581,77.5031,35.1259,325.5253,0,U,40974,999,12012,.35365E-3,.7443E-4,0
SNAP-3 JIMI,2015-058M,2026-07-16T21:01:07.831776,15.02623767,.0107963,64.7651,125.8158,43.6937,317.2663,0,U,40975,999,11868,.28179E-3,.4084E-4,0
PROPCUBE 1 (FLORA),2015-058N,2026-07-16T09:45:10.861344,14.89331448,.0132569,64.7718,204.6689,49.6229,311.6365,0,U,40976,999,12061,.12914E-3,.1269E-4,0
SINOD-D 3,2015-058P,2026-07-16T23:02:06.241344,14.94182425,.0121208,64.7706,182.8349,46.4590,314.6513,0,U,40977,999,11920,.19968E-3,.2297E-4,0
RAVAN,2016-067B,2026-07-16T16:29:31.011072,15.57575989,.0002422,97.9839,90.7306,209.8992,150.2123,0,U,41849,999,53228,.50618E-3,.37324E-3,0
CELTEE 1,2016-067C,2026-07-17T02:20:44.374848,15.19951703,.0002362,98.0628,66.7044,107.7309,252.4182,0,U,41850,999,53042,.13018E-3,.2721E-4,0
OPTICUBE 04,2016-067D,2026-07-16T20:07:06.750048,15.09775775,.0016057,98.0673,51.6669,22.5432,337.6498,0,U,41851,999,52964,.59841E-4,.897E-5,0
AEROCUBE 8D,2016-067E,2026-07-17T02:00:47.829024,15.24785915,.0004475,98.0637,70.5317,51.9450,308.2189,0,U,41852,999,53062,.16734E-3,.4067E-4,0
AEROCUBE 8C,2016-067F,2026-07-16T13:53:46.881312,15.25035356,.000407,98.0512,67.1784,336.3351,23.7698,0,U,41853,999,53054,.16746E-3,.4101E-4,0
CORVUS BC2,2017-042X,2026-07-16T10:08:04.803648,15.06459280,.0013332,97.4091,357.6431,19.0018,341.1704,0,U,42846,999,49146,.75471E-4,.1056E-4,0
CORVUS BC1,2017-042Y,2026-07-16T21:05:09.452832,15.06624631,.0011468,97.4122,358.9151,354.1091,6.0000,0,U,42847,999,49156,.10165E-3,.1449E-4,0
MAKERSAT 0,2017-073D,2026-07-16T10:20:26.018880,15.33035166,.0105507,97.4577,80.1901,167.8681,192.5141,0,U,43016,999,47094,.30313E-3,.11478E-3,0
SIRION PATHFINDER-2,2018-099B,2026-07-16T15:29:53.736576,15.14783275,.0008606,97.4236,246.0049,186.2645,173.8481,0,U,43759,999,41708,.10542E-3,.1892E-4,0
CORVUS BC4,2018-099K,2026-07-16T15:01:57.376992,15.12708038,.0006558,97.4049,239.7463,254.7281,105.3225,0,U,43767,999,41685,.10674E-3,.1806E-4,0
M2 PATHFINDER,2020-037E,2026-07-16T23:18:19.247040,15.04794277,.0012754,97.8141,29.5398,57.0170,303.2280,0,U,45727,999,32997,.50756E-4,.653E-5,0
